[{"OBJECT_NAME":"OBJECT H","OBJECT_ID":"2023-091H","EPOCH":"2026-03-09T22:34:46.487712","MEAN_MOTION":15.26380881,"ECCENTRICITY":0.00117854,"INCLINATION":97.5166,"RA_OF_ASC_NODE":131.4381,"ARG_OF_PERICENTER":104.1062,"MEAN_ANOMALY":256.1487,"EPHEMERIS_TYPE":0,"CLASSIFICATION_TYPE":"U","NORAD_CAT_ID":57173,"ELEMENT_SET_NO":999,"REV_AT_EPOCH":14915,"BSTAR":0.00056321781,"MEAN_MOTION_DOT":0.00014617,"MEAN_MOTION_DDOT":0},{"OBJECT_NAME":"STARLINK-32105","OBJECT_ID":"2024-086H","EPOCH":"2026-03-09T00:36:14.673312","MEAN_MOTION":15.27571735,"ECCENTRICITY":5.995e-5,"INCLINATION":43.0048,"RA_OF_ASC_NODE":63.3818,"ARG_OF_PERICENTER":262.6216,"MEAN_ANOMALY":97.4567,"EPHEMERIS_TYPE":0,"CLASSIFICATION_TYPE":"U","NORAD_CAT_ID":59689,"ELEMENT_SET_NO":999,"REV_AT_EPOCH":10401,"BSTAR":8.65949e-7,"MEAN_MOTION_DOT":-2.38e-6,"MEAN_MOTION_DDOT":0}]
